start=new Date('2021-10-28T00:00:00.000Z').valueOf();
sats=[{"TIME_SYSTEM":"UTC","EPHEMERIS_TYPE":"0","PERIOD":"95.592","TLE_LINE2":"2 47810  53.0547 217.4041 0001919  72.7206 287.3993 15.06399129 35856","SEMIMAJOR_AXIS":"6925.351","OBJECT_ID":"2021-018Z","OBJECT_NAME":"STARLINK-2391","ECCENTRICITY":"0.00019190","MEAN_MOTION_DOT":"0.00000812","ELEMENT_SET_NO":"999","MEAN_MOTION":"15.06399129","INCLINATION":"53.0547","PERIAPSIS":"545.887","REV_AT_EPOCH":"3585","OBJECT_TYPE":"PAYLOAD","EPOCH":"2021-10-27T16:22:26.692032","BSTAR":"0.00007342200000","GP_ID":"188282172","FILE":"3187505","MEAN_ANOMALY":"287.3993","CLASSIFICATION_TYPE":"U","DECAY_DATE":null,"SITE":"AFETR","MEAN_MOTION_DDOT":"0.0000000000000","APOAPSIS":"548.545","TLE_LINE1":"1 47810U 21018Z   21300.68225338  .00000812  00000-0  73422-4 0  9998","NORAD_CAT_ID":"47810","CENTER_NAME":"EARTH","RCS_SIZE":"LARGE","RA_OF_ASC_NODE":"217.4041","COUNTRY_CODE":"US","ARG_OF_PERICENTER":"72.7206","MEAN_ELEMENT_THEORY":"SGP4","REF_FRAME":"TEME","LAUNCH_DATE":"2021-03-11"},{"SEMIMAJOR_AXIS":"6925.357","OBJECT_ID":"2021-018AA","PERIOD":"95.592","TLE_LINE2":"2 47811  53.0556 189.8906 0001912  78.3510 281.7693 15.06397302 36590","TIME_SYSTEM":"UTC","EPHEMERIS_TYPE":"0","INCLINATION":"53.0556","ELEMENT_SET_NO":"999","MEAN_MOTION_DOT":"0.00000031","MEAN_MOTION":"15.06397302","OBJECT_NAME":"STARLINK-2392","ECCENTRICITY":"0.00019120","OBJECT_TYPE":"PAYLOAD","EPOCH":"2021-10-27T02:59:38.562432","BSTAR":"0.00002096400000","PERIAPSIS":"545.898","REV_AT_EPOCH":"3659","FILE":"3187107","GP_ID":"188273439","SITE":"AFETR","MEAN_MOTION_DDOT":"0.0000000000000","MEAN_ANOMALY":"281.7693","DECAY_DATE":null,"CLASSIFICATION_TYPE":"U","TLE_LINE1":"1 47811U 21018AA  21300.12475188  .00000031  00000-0  20964-4 0  9994","APOAPSIS":"548.546","RA_OF_ASC_NODE":"189.8906","COUNTRY_CODE":"US","RCS_SIZE":"LARGE","NORAD_CAT_ID":"47811","CENTER_NAME":"EARTH","REF_FRAME":"TEME","LAUNCH_DATE":"2021-03-11","MEAN_ELEMENT_THEORY":"SGP4","ARG_OF_PERICENTER":"78.3510"},{"REF_FRAME":"TEME","LAUNCH_DATE":"2021-03-11","MEAN_ELEMENT_THEORY":"SGP4","ARG_OF_PERICENTER":"65.7103","COUNTRY_CODE":"US","RA_OF_ASC_NODE":"217.9292","RCS_SIZE":"LARGE","NORAD_CAT_ID":"47812","CENTER_NAME":"EARTH","TLE_LINE1":"1 47812U 21018AB  21300.56061412  .00000428  00000-0  47603-4 0  9993","APOAPSIS":"548.464","SITE":"AFETR","MEAN_MOTION_DDOT":"0.0000000000000","MEAN_ANOMALY":"294.4075","CLASSIFICATION_TYPE":"U","DECAY_DATE":null,"FILE":"3187418","GP_ID":"188279478","EPOCH":"2021-10-27T13:27:17.059968","OBJECT_TYPE":"PAYLOAD","BSTAR":"0.00004760300000","REV_AT_EPOCH":"3583","PERIAPSIS":"545.953","INCLINATION":"53.0541","ELEMENT_SET_NO":"999","MEAN_MOTION_DOT":"0.00000428","MEAN_MOTION":"15.06401691","ECCENTRICITY":"0.00018130","OBJECT_NAME":"STARLINK-2393","SEMIMAJOR_AXIS":"6925.343","OBJECT_ID":"2021-018AB","PERIOD":"95.592","TLE_LINE2":"2 47812  53.0541 217.9292 0001813  65.7103 294.4075 15.06401691 35832","TIME_SYSTEM":"UTC","EPHEMERIS_TYPE":"0"},{"LAUNCH_DATE":"2021-03-11","REF_FRAME":"TEME","MEAN_ELEMENT_THEORY":"SGP4","ARG_OF_PERICENTER":"72.4240","RA_OF_ASC_NODE":"187.4156","COUNTRY_CODE":"US","RCS_SIZE":"LARGE","CENTER_NAME":"EARTH","NORAD_CAT_ID":"47813","TLE_LINE1":"1 47813U 21018AC  21300.67764561  .00000899  00000-0  79232-4 0  9996","APOAPSIS":"548.556","MEAN_MOTION_DDOT":"0.0000000000000","SITE":"AFETR","CLASSIFICATION_TYPE":"U","DECAY_DATE":null,"MEAN_ANOMALY":"287.6962","FILE":"3187421","GP_ID":"188279518","BSTAR":"0.00007923200000","EPOCH":"2021-10-27T16:15:48.580704","OBJECT_TYPE":"PAYLOAD","REV_AT_EPOCH":"3627","PERIAPSIS":"545.854","INCLINATION":"53.0561","MEAN_MOTION":"15.06402788","MEAN_MOTION_DOT":"0.00000899","ELEMENT_SET_NO":"999","ECCENTRICITY":"0.00019510","OBJECT_NAME":"STARLINK-2394","OBJECT_ID":"2021-018AC","SEMIMAJOR_AXIS":"6925.340","TLE_LINE2":"2 47813  53.0561 187.4156 0001951  72.4240 287.6962 15.06402788 36271","PERIOD":"95.592","TIME_SYSTEM":"UTC","EPHEMERIS_TYPE":"0"},{"MEAN_ELEMENT_THEORY":"SGP4","REF_FRAME":"TEME","LAUNCH_DATE":"2021-03-11","ARG_OF_PERICENTER":"70.8896","RCS_SIZE":"MEDIUM","COUNTRY_CODE":"US","RA_OF_ASC_NODE":"209.3983","NORAD_CAT_ID":"47814","CENTER_NAME":"EARTH","APOAPSIS":"548.551","TLE_LINE1":"1 47814U 21018AD  21300.23717857 -.00000369  00000-0 -58340-5 0  9997","SITE":"AFETR","MEAN_MOTION_DDOT":"0.0000000000000","MEAN_ANOMALY":"289.2303","CLASSIFICATION_TYPE":"U","DECAY_DATE":null,"GP_ID":"188272188","FILE":"3187107","PERIAPSIS":"545.872","REV_AT_EPOCH":"3633","OBJECT_TYPE":"PAYLOAD","EPOCH":"2021-10-27T05:41:32.228448","BSTAR":"-0.00000583400000","INCLINATION":"53.0550","OBJECT_NAME":"STARLINK-2395","ECCENTRICITY":"0.00019340","MEAN_MOTION_DOT":"-0.00000369","ELEMENT_SET_NO":"999","MEAN_MOTION":"15.06400599","PERIOD":"95.592","TLE_LINE2":"2 47814  53.0550 209.3983 0001934  70.8896 289.2303 15.06400599 36334","SEMIMAJOR_AXIS":"6925.347","OBJECT_ID":"2021-018AD","TIME_SYSTEM":"UTC","EPHEMERIS_TYPE":"0"},{"GP_ID":"188280043","FILE":"3187422","PERIAPSIS":"545.946","REV_AT_EPOCH":"3608","BSTAR":"0.00002278300000","OBJECT_TYPE":"PAYLOAD","EPOCH":"2021-10-27T17:36:04.699872","INCLINATION":"53.0559","OBJECT_NAME":"STARLINK-2396","ECCENTRICITY":"0.00018140","MEAN_MOTION":"15.06403650","ELEMENT_SET_NO":"999","MEAN_MOTION_DOT":"0.00000058","TLE_LINE2":"2 47815  53.0559 202.1694 0001814  76.2424 283.8767 15.06403650 36085","PERIOD":"95.592","OBJECT_ID":"2021-018AE","SEMIMAJOR_AXIS":"6925.337","EPHEMERIS_TYPE":"0","TIME_SYSTEM":"UTC","MEAN_ELEMENT_THEORY":"SGP4","LAUNCH_DATE":"2021-03-11","REF_FRAME":"TEME","ARG_OF_PERICENTER":"76.2424","RCS_SIZE":"LARGE","RA_OF_ASC_NODE":"202.1694","COUNTRY_CODE":"US","NORAD_CAT_ID":"47815","CENTER_NAME":"EARTH","APOAPSIS":"548.459","TLE_LINE1":"1 47815U 21018AE  21300.73338773  .00000058  00000-0  22783-4 0  9993","MEAN_MOTION_DDOT":"0.0000000000000","SITE":"AFETR","CLASSIFICATION_TYPE":"U","DECAY_DATE":null,"MEAN_ANOMALY":"283.8767"},{"NORAD_CAT_ID":"47816","CENTER_NAME":"EARTH","RCS_SIZE":"LARGE","RA_OF_ASC_NODE":"207.4211","COUNTRY_CODE":"US","ARG_OF_PERICENTER":"77.1234","MEAN_ELEMENT_THEORY":"SGP4","REF_FRAME":"TEME","LAUNCH_DATE":"2021-03-11","MEAN_ANOMALY":"282.9955","CLASSIFICATION_TYPE":"U","DECAY_DATE":null,"SITE":"AFETR","MEAN_MOTION_DDOT":"0.0000000000000","APOAPSIS":"548.468","TLE_LINE1":"1 47816U 21018AF  21300.67580520  .00000392  00000-0  45256-4 0  9997","PERIAPSIS":"545.989","REV_AT_EPOCH":"3600","OBJECT_TYPE":"PAYLOAD","EPOCH":"2021-10-27T16:13:09.569280","BSTAR":"0.00004525600000","GP_ID":"188279536","FILE":"3187422","EPHEMERIS_TYPE":"0","TIME_SYSTEM":"UTC","PERIOD":"95.592","TLE_LINE2":"2 47816  53.0553 207.4211 0001790  77.1234 282.9955 15.06395058 36008","SEMIMAJOR_AXIS":"6925.364","OBJECT_ID":"2021-018AF","OBJECT_NAME":"STARLINK-2399","ECCENTRICITY":"0.00017900","MEAN_MOTION_DOT":"0.00000392","ELEMENT_SET_NO":"999","MEAN_MOTION":"15.06395058","INCLINATION":"53.0553"},{"MEAN_MOTION":"15.06397091","ELEMENT_SET_NO":"999","MEAN_MOTION_DOT":"0.00000905","ECCENTRICITY":"0.00018020","OBJECT_NAME":"STARLINK-2400","INCLINATION":"53.0544","TIME_SYSTEM":"UTC","EPHEMERIS_TYPE":"0","OBJECT_ID":"2021-018AG","SEMIMAJOR_AXIS":"6925.357","TLE_LINE2":"2 47817  53.0544 209.4175 0001802  67.2327 292.8852 15.06397091 36260","PERIOD":"95.592","FILE":"3187107","GP_ID":"188272438","BSTAR":"0.00007964300000","OBJECT_TYPE":"PAYLOAD","EPOCH":"2021-10-27T05:30:55.188288","REV_AT_EPOCH":"3626","PERIAPSIS":"545.975","TLE_LINE1":"1 47817U 21018AG  21300.22980542  .00000905  00000-0  79643-4 0  9994","APOAPSIS":"548.470","CLASSIFICATION_TYPE":"U","DECAY_DATE":null,"MEAN_ANOMALY":"292.8852","MEAN_MOTION_DDOT":"0.0000000000000","SITE":"AFETR","ARG_OF_PERICENTER":"67.2327","LAUNCH_DATE":"2021-03-11","REF_FRAME":"TEME","MEAN_ELEMENT_THEORY":"SGP4","NORAD_CAT_ID":"47817","CENTER_NAME":"EARTH","RA_OF_ASC_NODE":"209.4175","COUNTRY_CODE":"US","RCS_SIZE":"LARGE"},{"TLE_LINE1":"1 47818U 21018AH  21300.25698630  .00000516  00000-0  53548-4 0  9996","APOAPSIS":"548.321","MEAN_ANOMALY":"284.9337","CLASSIFICATION_TYPE":"U","DECAY_DATE":null,"SITE":"AFETR","MEAN_MOTION_DDOT":"0.0000000000000","ARG_OF_PERICENTER":"75.1828","REF_FRAME":"TEME","LAUNCH_DATE":"2021-03-11","MEAN_ELEMENT_THEORY":"SGP4","NORAD_CAT_ID":"47818","CENTER_NAME":"EARTH","COUNTRY_CODE":"US","RA_OF_ASC_NODE":"214.3017","RCS_SIZE":"LARGE","MEAN_MOTION_DOT":"0.00000516","ELEMENT_SET_NO":"999","MEAN_MOTION":"15.06397273","OBJECT_NAME":"STARLINK-2401","ECCENTRICITY":"0.00015870","INCLINATION":"53.0555","TIME_SYSTEM":"UTC","EPHEMERIS_TYPE":"0","SEMIMAJOR_AXIS":"6925.357","OBJECT_ID":"2021-018AH","PERIOD":"95.592","TLE_LINE2":"2 47818  53.0555 214.3017 0001587  75.1828 284.9337 15.06397273 36203","FILE":"3187107","GP_ID":"188272688","OBJECT_TYPE":"PAYLOAD","EPOCH":"2021-10-27T06:10:03.616320","BSTAR":"0.00005354800000","REV_AT_EPOCH":"3620","PERIAPSIS":"546.123"},{"PERIAPSIS":"546.030","REV_AT_EPOCH":"3633","OBJECT_TYPE":"PAYLOAD","EPOCH":"2021-10-27T05:36:13.821984","BSTAR":"-0.00002443400000","GP_ID":"188273440","FILE":"3187107","TIME_SYSTEM":"UTC","EPHEMERIS_TYPE":"0","PERIOD":"95.592","TLE_LINE2":"2 47819  53.0573 209.4173 0001722  66.3984 293.7186 15.06397202 36334","SEMIMAJOR_AXIS":"6925.357","OBJECT_ID":"2021-018AJ","ECCENTRICITY":"0.00017220","OBJECT_NAME":"STARLINK-2402","MEAN_MOTION_DOT":"-0.00000645","ELEMENT_SET_NO":"999","MEAN_MOTION":"15.06397202","INCLINATION":"53.0573","CENTER_NAME":"EARTH","NORAD_CAT_ID":"47819","RCS_SIZE":"MEDIUM","COUNTRY_CODE":"US","RA_OF_ASC_NODE":"209.4173","ARG_OF_PERICENTER":"66.3984","MEAN_ELEMENT_THEORY":"SGP4","REF_FRAME":"TEME","LAUNCH_DATE":"2021-03-11","MEAN_ANOMALY":"293.7186","CLASSIFICATION_TYPE":"U","DECAY_DATE":null,"SITE":"AFETR","MEAN_MOTION_DDOT":"0.0000000000000","APOAPSIS":"548.415","TLE_LINE1":"1 47819U 21018AJ  21300.23349331 -.00000645  00000-0 -24434-4 0  9993"}];
